[{"OBJECT_NAME":"STARLINK-30881","OBJECT_ID":"2023-171X","EPOCH":"2026-03-09T22:00:01.999584","MEAN_MOTION":15.25538753,"ECCENTRICITY":0.00013636,"INCLINATION":42.9995,"RA_OF_ASC_NODE":283.8799,"ARG_OF_PERICENTER":278.8594,"MEAN_ANOMALY":275.7646,"EPHEMERIS_TYPE":0,"CLASSIFICATION_TYPE":"U","NORAD_CAT_ID":58251,"ELEMENT_SET_NO":999,"REV_AT_EPOCH":573,"BSTAR":0.00095026678,"MEAN_MOTION_DOT":0.00024405,"MEAN_MOTION_DDOT":0},{"OBJECT_NAME":"OBJECT M","OBJECT_ID":"2019-093M","EPOCH":"2026-03-09T22:23:03.457824","MEAN_MOTION":15.21921823,"ECCENTRICITY":0.00209816,"INCLINATION":97.7601,"RA_OF_ASC_NODE":172.1908,"ARG_OF_PERICENTER":299.2793,"MEAN_ANOMALY":60.6345,"EPHEMERIS_TYPE":0,"CLASSIFICATION_TYPE":"U","NORAD_CAT_ID":44890,"ELEMENT_SET_NO":999,"REV_AT_EPOCH":33917,"BSTAR":0.00037800273,"MEAN_MOTION_DOT":8.589e-5,"MEAN_MOTION_DDOT":0}]
